start=new Date('2022-10-22T00:00:00.000Z').valueOf();
sats=[{"REF_FRAME":"TEME","OBJECT_TYPE":"PAYLOAD","RA_OF_ASC_NODE":"45.7164","GP_ID":"215842722","FILE":"3628413","MEAN_MOTION_DDOT":"0.0000000000000","CLASSIFICATION_TYPE":"U","EPOCH":"2022-10-21T16:48:10.384416","OBJECT_NAME":"STARLINK-2378","ARG_OF_PERICENTER":"71.4644","MEAN_ANOMALY":"288.6498","TLE_LINE1":"1 47916U 21021BJ  22294.70012019  .00000860  00000-0  76646-4 0  9999","BSTAR":"0.00007664600000","MEAN_ELEMENT_THEORY":"SGP4","PERIOD":"95.592","APOAPSIS":"548.205","DECAY_DATE":null,"EPHEMERIS_TYPE":"0","RCS_SIZE":"LARGE","CENTER_NAME":"EARTH","TLE_LINE2":"2 47916  53.0565  45.7164 0001413  71.4644 288.6498 15.06395859 90178","REV_AT_EPOCH":"9017","MEAN_MOTION":"15.06395859","PERIAPSIS":"546.248","SEMIMAJOR_AXIS":"6925.361","TIME_SYSTEM":"UTC","MEAN_MOTION_DOT":"0.00000860","COUNTRY_CODE":"US","LAUNCH_DATE":"2021-03-14","OBJECT_ID":"2021-021BJ","INCLINATION":"53.0565","NORAD_CAT_ID":"47916","ELEMENT_SET_NO":"999","SITE":"AFETR","ECCENTRICITY":"0.00014130"},{"BSTAR":"0.00005354500000","MEAN_ANOMALY":"254.7358","TLE_LINE1":"1 47917U 21021BK  22294.77291362  .00000516  00000-0  53545-4 0  9998","OBJECT_NAME":"STARLINK-2397","ARG_OF_PERICENTER":"105.3779","EPHEMERIS_TYPE":"0","RCS_SIZE":"LARGE","DECAY_DATE":null,"APOAPSIS":"548.155","PERIOD":"95.592","MEAN_ELEMENT_THEORY":"SGP4","GP_ID":"215806696","OBJECT_TYPE":"PAYLOAD","RA_OF_ASC_NODE":"55.3668","REF_FRAME":"TEME","MEAN_MOTION_DDOT":"0.0000000000000","EPOCH":"2022-10-21T18:32:59.736768","CLASSIFICATION_TYPE":"U","FILE":"3627728","OBJECT_ID":"2021-021BK","COUNTRY_CODE":"US","LAUNCH_DATE":"2021-03-14","NORAD_CAT_ID":"47917","ELEMENT_SET_NO":"999","SITE":"AFETR","ECCENTRICITY":"0.00013400","INCLINATION":"53.0572","REV_AT_EPOCH":"8958","TLE_LINE2":"2 47917  53.0572  55.3668 0001340 105.3779 254.7358 15.06395665 89585","CENTER_NAME":"EARTH","MEAN_MOTION_DOT":"0.00000516","TIME_SYSTEM":"UTC","SEMIMAJOR_AXIS":"6925.362","PERIAPSIS":"546.299","MEAN_MOTION":"15.06395665"},{"INCLINATION":"53.0574","ECCENTRICITY":"0.00014740","SITE":"AFETR","NORAD_CAT_ID":"47918","ELEMENT_SET_NO":"999","LAUNCH_DATE":"2021-03-14","COUNTRY_CODE":"US","OBJECT_ID":"2021-021BL","PERIAPSIS":"546.214","SEMIMAJOR_AXIS":"6925.370","MEAN_MOTION":"15.06393090","TIME_SYSTEM":"UTC","MEAN_MOTION_DOT":"0.00000527","CENTER_NAME":"EARTH","TLE_LINE2":"2 47918  53.0574  55.9510 0001474  83.2285 276.8872 15.06393090 90043","REV_AT_EPOCH":"9004","MEAN_ELEMENT_THEORY":"SGP4","PERIOD":"95.593","DECAY_DATE":null,"APOAPSIS":"548.256","EPHEMERIS_TYPE":"0","RCS_SIZE":"LARGE","ARG_OF_PERICENTER":"83.2285","OBJECT_NAME":"STARLINK-2398","TLE_LINE1":"1 47918U 21021BL  22294.64759395  .00000527  00000-0  54251-4 0  9997","MEAN_ANOMALY":"276.8872","BSTAR":"0.00005425100000","FILE":"3628413","CLASSIFICATION_TYPE":"U","EPOCH":"2022-10-21T15:32:32.117280","MEAN_MOTION_DDOT":"0.0000000000000","REF_FRAME":"TEME","RA_OF_ASC_NODE":"55.9510","OBJECT_TYPE":"PAYLOAD","GP_ID":"215841720"},{"REF_FRAME":"TEME","GP_ID":"215842472","RA_OF_ASC_NODE":"66.0105","OBJECT_TYPE":"PAYLOAD","FILE":"3628413","MEAN_MOTION_DDOT":"0.0000000000000","EPOCH":"2022-10-21T15:09:58.789152","CLASSIFICATION_TYPE":"U","OBJECT_NAME":"STARLINK-2405","ARG_OF_PERICENTER":"82.1886","BSTAR":"-0.00001460700000","TLE_LINE1":"1 47919U 21021BM  22294.63193043 -.00000499  00000-0 -14607-4 0  9990","MEAN_ANOMALY":"277.9231","PERIOD":"95.593","MEAN_ELEMENT_THEORY":"SGP4","EPHEMERIS_TYPE":"0","RCS_SIZE":"LARGE","APOAPSIS":"548.016","DECAY_DATE":null,"TLE_LINE2":"2 47919  53.0574  66.0105 0001133  82.1886 277.9231 15.06394040 89881","CENTER_NAME":"EARTH","REV_AT_EPOCH":"8988","TIME_SYSTEM":"UTC","PERIAPSIS":"546.447","MEAN_MOTION":"15.06394040","SEMIMAJOR_AXIS":"6925.367","MEAN_MOTION_DOT":"-0.00000499","OBJECT_ID":"2021-021BM","COUNTRY_CODE":"US","LAUNCH_DATE":"2021-03-14","INCLINATION":"53.0574","ELEMENT_SET_NO":"999","NORAD_CAT_ID":"47919","ECCENTRICITY":"0.00011330","SITE":"AFETR"},{"BSTAR":"0.00002779000000","TLE_LINE1":"1 47977U 21024A   22293.77818827  .00000133  00000-0  27790-4 0  9995","MEAN_ANOMALY":"248.0335","OBJECT_NAME":"STARLINK-2087","ARG_OF_PERICENTER":"112.0788","EPHEMERIS_TYPE":"0","RCS_SIZE":"LARGE","DECAY_DATE":null,"APOAPSIS":"548.106","PERIOD":"95.593","MEAN_ELEMENT_THEORY":"SGP4","GP_ID":"215724118","RA_OF_ASC_NODE":"114.8507","OBJECT_TYPE":"PAYLOAD","REF_FRAME":"TEME","EPOCH":"2022-10-20T18:40:35.466528","CLASSIFICATION_TYPE":"U","MEAN_MOTION_DDOT":"0.0000000000000","FILE":"3626396","OBJECT_ID":"2021-024A","LAUNCH_DATE":"2021-03-24","COUNTRY_CODE":"US","SITE":"AFETR","ECCENTRICITY":"0.00012600","NORAD_CAT_ID":"47977","ELEMENT_SET_NO":"999","INCLINATION":"53.0544","REV_AT_EPOCH":"8842","TLE_LINE2":"2 47977  53.0544 114.8507 0001260 112.0788 248.0335 15.06393530 88421","CENTER_NAME":"EARTH","MEAN_MOTION_DOT":"0.00000133","TIME_SYSTEM":"UTC","SEMIMAJOR_AXIS":"6925.368","PERIAPSIS":"546.361","MEAN_MOTION":"15.06393530"},{"MEAN_MOTION_DOT":"-0.00000243","TIME_SYSTEM":"UTC","PERIAPSIS":"546.092","MEAN_MOTION":"15.06402503","SEMIMAJOR_AXIS":"6925.341","REV_AT_EPOCH":"8843","TLE_LINE2":"2 47978  53.0541 120.2740 0001609 111.1929 248.9232 15.06402503 88430","CENTER_NAME":"EARTH","ELEMENT_SET_NO":"999","NORAD_CAT_ID":"47978","SITE":"AFETR","ECCENTRICITY":"0.00016090","INCLINATION":"53.0541","OBJECT_ID":"2021-024B","COUNTRY_CODE":"US","LAUNCH_DATE":"2021-03-24","MEAN_MOTION_DDOT":"0.0000000000000","CLASSIFICATION_TYPE":"U","EPOCH":"2022-10-21T19:04:10.626816","FILE":"3628413","GP_ID":"215841477","RA_OF_ASC_NODE":"120.2740","OBJECT_TYPE":"PAYLOAD","REF_FRAME":"TEME","EPHEMERIS_TYPE":"0","RCS_SIZE":"LARGE","APOAPSIS":"548.320","DECAY_DATE":null,"PERIOD":"95.592","MEAN_ELEMENT_THEORY":"SGP4","BSTAR":"0.00000260680000","MEAN_ANOMALY":"248.9232","TLE_LINE1":"1 47978U 21024B   22294.79456744 -.00000243  00000-0  26068-5 0  9996","ARG_OF_PERICENTER":"111.1929","OBJECT_NAME":"STARLINK-1647"},{"ARG_OF_PERICENTER":"48.2931","OBJECT_NAME":"STARLINK-2325","TLE_LINE1":"1 47979U 21024C   22294.73237173 -.00000001  00000-0  18839-4 0  9992","MEAN_ANOMALY":"311.8209","BSTAR":"0.00001883900000","MEAN_ELEMENT_THEORY":"SGP4","PERIOD":"95.593","APOAPSIS":"548.456","DECAY_DATE":null,"RCS_SIZE":"LARGE","EPHEMERIS_TYPE":"0","REF_FRAME":"TEME","OBJECT_TYPE":"PAYLOAD","RA_OF_ASC_NODE":"55.5629","GP_ID":"215841726","FILE":"3628413","CLASSIFICATION_TYPE":"U","EPOCH":"2022-10-21T17:34:36.917472","MEAN_MOTION_DDOT":"0.0000000000000","LAUNCH_DATE":"2021-03-24","COUNTRY_CODE":"US","OBJECT_ID":"2021-024C","INCLINATION":"53.0564","SITE":"AFETR","ECCENTRICITY":"0.00017640","NORAD_CAT_ID":"47979","ELEMENT_SET_NO":"999","CENTER_NAME":"EARTH","TLE_LINE2":"2 47979  53.0564  55.5629 0001764  48.2931 311.8209 15.06393347 89336","REV_AT_EPOCH":"8933","SEMIMAJOR_AXIS":"6925.369","PERIAPSIS":"546.012","MEAN_MOTION":"15.06393347","TIME_SYSTEM":"UTC","MEAN_MOTION_DOT":"-0.00000001"},{"TLE_LINE2":"2 47980  53.0561  36.1991 0001535  56.2430 303.8705 15.06407252 89592","CENTER_NAME":"EARTH","REV_AT_EPOCH":"8959","TIME_SYSTEM":"UTC","MEAN_MOTION":"15.06407252","PERIAPSIS":"546.128","SEMIMAJOR_AXIS":"6925.326","MEAN_MOTION_DOT":"0.00001956","OBJECT_ID":"2021-024D","LAUNCH_DATE":"2021-03-24","COUNTRY_CODE":"US","INCLINATION":"53.0561","ECCENTRICITY":"0.00015350","SITE":"AFETR","NORAD_CAT_ID":"47980","ELEMENT_SET_NO":"999","REF_FRAME":"TEME","GP_ID":"215842478","OBJECT_TYPE":"PAYLOAD","RA_OF_ASC_NODE":"36.1991","FILE":"3628413","EPOCH":"2022-10-21T14:52:44.619168","CLASSIFICATION_TYPE":"U","MEAN_MOTION_DDOT":"0.0000000000000","OBJECT_NAME":"STARLINK-2312","ARG_OF_PERICENTER":"56.2430","BSTAR":"0.00015017000000","TLE_LINE1":"1 47980U 21024D   22294.61996087  .00001956  00000-0  15017-3 0  9990","MEAN_ANOMALY":"303.8705","PERIOD":"95.592","MEAN_ELEMENT_THEORY":"SGP4","RCS_SIZE":"LARGE","EPHEMERIS_TYPE":"0","DECAY_DATE":null,"APOAPSIS":"548.254"},{"RCS_SIZE":"LARGE","EPHEMERIS_TYPE":"0","DECAY_DATE":null,"APOAPSIS":"548.068","PERIOD":"95.592","MEAN_ELEMENT_THEORY":"SGP4","BSTAR":"0.00010132000000","MEAN_ANOMALY":"250.8087","TLE_LINE1":"1 47981U 21024E   22294.78350606  .00001228  00000-0  10132-3 0  9995","OBJECT_NAME":"STARLINK-2303","ARG_OF_PERICENTER":"109.3037","MEAN_MOTION_DDOT":"0.0000000000000","CLASSIFICATION_TYPE":"U","EPOCH":"2022-10-21T18:48:14.923584","FILE":"3628413","GP_ID":"215843228","OBJECT_TYPE":"PAYLOAD","RA_OF_ASC_NODE":"120.3198","REF_FRAME":"TEME","ELEMENT_SET_NO":"999","NORAD_CAT_ID":"47981","SITE":"AFETR","ECCENTRICITY":"0.00012500","INCLINATION":"53.0535","OBJECT_ID":"2021-024E","COUNTRY_CODE":"US","LAUNCH_DATE":"2021-03-24","MEAN_MOTION_DOT":"0.00001228","TIME_SYSTEM":"UTC","PERIAPSIS":"546.337","SEMIMAJOR_AXIS":"6925.338","MEAN_MOTION":"15.06403578","REV_AT_EPOCH":"8843","TLE_LINE2":"2 47981  53.0535 120.3198 0001250 109.3037 250.8087 15.06403578 88439","CENTER_NAME":"EARTH"},{"INCLINATION":"53.0556","SITE":"AFETR","ECCENTRICITY":"0.00016670","ELEMENT_SET_NO":"999","NORAD_CAT_ID":"47982","LAUNCH_DATE":"2021-03-24","COUNTRY_CODE":"US","OBJECT_ID":"2021-024F","PERIAPSIS":"546.045","MEAN_MOTION":"15.06404466","SEMIMAJOR_AXIS":"6925.335","TIME_SYSTEM":"UTC","MEAN_MOTION_DOT":"0.00000947","CENTER_NAME":"EARTH","TLE_LINE2":"2 47982  53.0556  50.7122 0001667  59.5558 300.5596 15.06404466 89348","REV_AT_EPOCH":"8934","MEAN_ELEMENT_THEORY":"SGP4","PERIOD":"95.592","DECAY_DATE":null,"APOAPSIS":"548.354","EPHEMERIS_TYPE":"0","RCS_SIZE":"LARGE","ARG_OF_PERICENTER":"59.5558","OBJECT_NAME":"STARLINK-2317","MEAN_ANOMALY":"300.5596","TLE_LINE1":"1 47982U 21024F   22294.69780879  .00000947  00000-0  82444-4 0  9998","BSTAR":"0.00008244400000","FILE":"3628413","EPOCH":"2022-10-21T16:44:50.679456","CLASSIFICATION_TYPE":"U","MEAN_MOTION_DDOT":"0.0000000000000","REF_FRAME":"TEME","RA_OF_ASC_NODE":"50.7122","OBJECT_TYPE":"PAYLOAD","GP_ID":"215841977"}];
